[{"OBJECT_NAME":"STARLINK-32271","OBJECT_ID":"2024-138P","EPOCH":"2026-03-09T22:49:43.147776","MEAN_MOTION":15.30185549,"ECCENTRICITY":0.00013216,"INCLINATION":53.1612,"RA_OF_ASC_NODE":308.678,"ARG_OF_PERICENTER":95.9089,"MEAN_ANOMALY":264.2063,"EPHEMERIS_TYPE":0,"CLASSIFICATION_TYPE":"U","NORAD_CAT_ID":60368,"ELEMENT_SET_NO":999,"REV_AT_EPOCH":9066,"BSTAR":8.7564367e-5,"MEAN_MOTION_DOT":2.234e-5,"MEAN_MOTION_DDOT":0},{"OBJECT_NAME":"ELECTRON KICK STAGE R\/B","OBJECT_ID":"2024-077D","EPOCH":"2026-03-09T23:22:03.772128","MEAN_MOTION":14.57371822,"ECCENTRICITY":0.03475139,"INCLINATION":97.3266,"RA_OF_ASC_NODE":78.5056,"ARG_OF_PERICENTER":202.0113,"MEAN_ANOMALY":156.5853,"EPHEMERIS_TYPE":0,"CLASSIFICATION_TYPE":"U","NORAD_CAT_ID":59590,"ELEMENT_SET_NO":999,"REV_AT_EPOCH":9944,"BSTAR":0.00037103128,"MEAN_MOTION_DOT":3.845e-5,"MEAN_MOTION_DDOT":0}]
